COSMO-SKYMED 1          
1 31598U 07023A   26187.85133120  .00001819  00000+0  16249-3 0  9998
2 31598  97.8850  19.8735 0001020  88.5242 271.6096 14.97195202 32736
COMS 1                  
1 36744U 10032A   26187.85896280 -.00000173  00000+0  00000+0 0  9990
2 36744   4.8524  75.1214 0011518  14.4384 139.6587  0.99169430 51285
CBERS 4                 
1 40336U 14079A   26187.83252800  .00000057  00000+0  34405-4 0  9990
2 40336  98.3516 244.0471 0001141  50.5122 309.6165 14.35514513606772
CAS500-1                
1 47932U 21022A   26187.87617766  .00004994  00000+0  23355-3 0  9990
2 47932  97.3874  82.7288 0004005 202.6232 157.4828 15.20207481293757
CO3D 3                  
1 64900U 25156B   26187.53953176  .00003909  00000+0  18356-3 0  9997
2 64900  97.4328 265.9545 0001834 104.5473 255.5966 15.20209716 52479
CO3D 4                  
1 64901U 25156C   26187.80297941  .00001338  00000+0  64903-4 0  9993
2 64901  97.4329 266.2139 0001045 168.8464 191.2794 15.20203135 52510
CO3D 2                  
1 64902U 25156D   26187.83545753  .00003919  00000+0  18408-3 0  9999
2 64902  97.4328 266.1449 0001401  88.0993 272.0403 15.20200421 52519
CO3D 1                  
1 64903U 25156E   26187.70396443  .00003997  00000+0  18765-3 0  9998
2 64903  97.4328 266.0154 0001331 100.0752 260.0634 15.20204267 52494
CAS500-3                
1 66655U 25274F   26187.71199432  .00001245  00000+0  14023-3 0  9992
2 66655  97.7440 115.3190 0006747  60.4707 299.7182 14.88370140 33054
CAS500-2                
1 69013U 26100AK  26187.69510725  .00004793  00000+0  22011-3 0  9998
2 69013  97.3874  85.1838 0008414 327.2220  32.8492 15.20835464  9776
