{
 "generated_at": "2026-07-07T08:23:21Z",
 "sources": [
  {
   "name": "CelesTrak",
   "url": "https://celestrak.org/NORAD/elements/",
   "license": "frei verfügbar; Attribution. Ursprünglich USSPACECOM/Space-Track."
  },
  {
   "name": "GCAT (J. McDowell, planet4589.org)",
   "url": "https://planet4589.org/space/gcat/",
   "license": "CC-BY 4.0"
  }
 ],
 "satellites": [
  {
   "norad": 47932,
   "name": "CAS500-1",
   "intl": "2021-022A",
   "group": "resource",
   "gcat": {
    "class": "C",
    "category": "IMG",
    "owner": "KARI",
    "state": "KR"
   },
   "omm": {
    "OBJECT_NAME": "CAS500-1",
    "OBJECT_ID": "2021-022A",
    "EPOCH": "2026-07-06T21:01:41.749824",
    "MEAN_MOTION": 15.20207481,
    "ECCENTRICITY": 0.0004005,
    "INCLINATION": 97.3874,
    "RA_OF_ASC_NODE": 82.7288,
    "ARG_OF_PERICENTER": 202.6232,
    "MEAN_ANOMALY": 157.4828,
    "EPHEMERIS_TYPE": 0,
    "CLASSIFICATION_TYPE": "U",
    "NORAD_CAT_ID": 47932,
    "ELEMENT_SET_NO": 999,
    "REV_AT_EPOCH": 29375,
    "BSTAR": 0.00023355,
    "MEAN_MOTION_DOT": 0.00004994,
    "MEAN_MOTION_DDOT": 0
   }
  },
  {
   "norad": 69013,
   "name": "CAS500-2",
   "intl": "2026-100AK",
   "group": "resource",
   "gcat": {
    "class": "C",
    "category": "TECH",
    "owner": "KAIST",
    "state": "KR"
   },
   "omm": {
    "OBJECT_NAME": "CAS500-2",
    "OBJECT_ID": "2026-100AK",
    "EPOCH": "2026-07-06T16:40:57.266400",
    "MEAN_MOTION": 15.20835464,
    "ECCENTRICITY": 0.0008414,
    "INCLINATION": 97.3874,
    "RA_OF_ASC_NODE": 85.1838,
    "ARG_OF_PERICENTER": 327.222,
    "MEAN_ANOMALY": 32.8492,
    "EPHEMERIS_TYPE": 0,
    "CLASSIFICATION_TYPE": "U",
    "NORAD_CAT_ID": 69013,
    "ELEMENT_SET_NO": 999,
    "REV_AT_EPOCH": 977,
    "BSTAR": 0.00022011,
    "MEAN_MOTION_DOT": 0.00004793,
    "MEAN_MOTION_DDOT": 0
   }
  },
  {
   "norad": 66655,
   "name": "CAS500-3",
   "intl": "2025-274F",
   "group": "resource",
   "gcat": {
    "class": "B",
    "category": "IMG",
    "owner": "KAIST",
    "state": "KR"
   },
   "omm": {
    "OBJECT_NAME": "CAS500-3",
    "OBJECT_ID": "2025-274F",
    "EPOCH": "2026-07-06T17:05:16.309248",
    "MEAN_MOTION": 14.8837014,
    "ECCENTRICITY": 0.0006747,
    "INCLINATION": 97.744,
    "RA_OF_ASC_NODE": 115.319,
    "ARG_OF_PERICENTER": 60.4707,
    "MEAN_ANOMALY": 299.7182,
    "EPHEMERIS_TYPE": 0,
    "CLASSIFICATION_TYPE": "U",
    "NORAD_CAT_ID": 66655,
    "ELEMENT_SET_NO": 999,
    "REV_AT_EPOCH": 3305,
    "BSTAR": 0.00014023,
    "MEAN_MOTION_DOT": 0.00001245,
    "MEAN_MOTION_DDOT": 0
   }
  },
  {
   "norad": 40336,
   "name": "CBERS 4",
   "intl": "2014-079A",
   "group": "resource",
   "gcat": {
    "class": "C",
    "category": "IMG",
    "owner": "ZZWYZ/INPE",
    "state": "CN"
   },
   "omm": {
    "OBJECT_NAME": "CBERS 4",
    "OBJECT_ID": "2014-079A",
    "EPOCH": "2026-07-06T19:58:50.419200",
    "MEAN_MOTION": 14.35514513,
    "ECCENTRICITY": 0.0001141,
    "INCLINATION": 98.3516,
    "RA_OF_ASC_NODE": 244.0471,
    "ARG_OF_PERICENTER": 50.5122,
    "MEAN_ANOMALY": 309.6165,
    "EPHEMERIS_TYPE": 0,
    "CLASSIFICATION_TYPE": "U",
    "NORAD_CAT_ID": 40336,
    "ELEMENT_SET_NO": 999,
    "REV_AT_EPOCH": 60677,
    "BSTAR": 0.000034405,
    "MEAN_MOTION_DOT": 5.7e-7,
    "MEAN_MOTION_DDOT": 0
   }
  },
  {
   "norad": 64903,
   "name": "CO3D 1",
   "intl": "2025-156E",
   "group": "resource",
   "gcat": {
    "class": "C",
    "category": "SCI",
    "owner": "CNES",
    "state": "F"
   },
   "omm": {
    "OBJECT_NAME": "CO3D 1",
    "OBJECT_ID": "2025-156E",
    "EPOCH": "2026-07-06T16:53:42.526752",
    "MEAN_MOTION": 15.20204267,
    "ECCENTRICITY": 0.0001331,
    "INCLINATION": 97.4328,
    "RA_OF_ASC_NODE": 266.0154,
    "ARG_OF_PERICENTER": 100.0752,
    "MEAN_ANOMALY": 260.0634,
    "EPHEMERIS_TYPE": 0,
    "CLASSIFICATION_TYPE": "U",
    "NORAD_CAT_ID": 64903,
    "ELEMENT_SET_NO": 999,
    "REV_AT_EPOCH": 5249,
    "BSTAR": 0.00018765,
    "MEAN_MOTION_DOT": 0.00003997,
    "MEAN_MOTION_DDOT": 0
   }
  },
  {
   "norad": 64902,
   "name": "CO3D 2",
   "intl": "2025-156D",
   "group": "resource",
   "gcat": {
    "class": "C",
    "category": "SCI",
    "owner": "CNES",
    "state": "F"
   },
   "omm": {
    "OBJECT_NAME": "CO3D 2",
    "OBJECT_ID": "2025-156D",
    "EPOCH": "2026-07-06T20:03:03.530592",
    "MEAN_MOTION": 15.20200421,
    "ECCENTRICITY": 0.0001401,
    "INCLINATION": 97.4328,
    "RA_OF_ASC_NODE": 266.1449,
    "ARG_OF_PERICENTER": 88.0993,
    "MEAN_ANOMALY": 272.0403,
    "EPHEMERIS_TYPE": 0,
    "CLASSIFICATION_TYPE": "U",
    "NORAD_CAT_ID": 64902,
    "ELEMENT_SET_NO": 999,
    "REV_AT_EPOCH": 5251,
    "BSTAR": 0.00018408,
    "MEAN_MOTION_DOT": 0.00003919,
    "MEAN_MOTION_DDOT": 0
   }
  },
  {
   "norad": 64900,
   "name": "CO3D 3",
   "intl": "2025-156B",
   "group": "resource",
   "gcat": {
    "class": "C",
    "category": "SCI",
    "owner": "CNES",
    "state": "F"
   },
   "omm": {
    "OBJECT_NAME": "CO3D 3",
    "OBJECT_ID": "2025-156B",
    "EPOCH": "2026-07-06T12:56:55.544064",
    "MEAN_MOTION": 15.20209716,
    "ECCENTRICITY": 0.0001834,
    "INCLINATION": 97.4328,
    "RA_OF_ASC_NODE": 265.9545,
    "ARG_OF_PERICENTER": 104.5473,
    "MEAN_ANOMALY": 255.5966,
    "EPHEMERIS_TYPE": 0,
    "CLASSIFICATION_TYPE": "U",
    "NORAD_CAT_ID": 64900,
    "ELEMENT_SET_NO": 999,
    "REV_AT_EPOCH": 5247,
    "BSTAR": 0.00018356,
    "MEAN_MOTION_DOT": 0.00003909,
    "MEAN_MOTION_DDOT": 0
   }
  },
  {
   "norad": 64901,
   "name": "CO3D 4",
   "intl": "2025-156C",
   "group": "resource",
   "gcat": {
    "class": "C",
    "category": "SCI",
    "owner": "CNES",
    "state": "F"
   },
   "omm": {
    "OBJECT_NAME": "CO3D 4",
    "OBJECT_ID": "2025-156C",
    "EPOCH": "2026-07-06T19:16:17.421024",
    "MEAN_MOTION": 15.20203135,
    "ECCENTRICITY": 0.0001045,
    "INCLINATION": 97.4329,
    "RA_OF_ASC_NODE": 266.2139,
    "ARG_OF_PERICENTER": 168.8464,
    "MEAN_ANOMALY": 191.2794,
    "EPHEMERIS_TYPE": 0,
    "CLASSIFICATION_TYPE": "U",
    "NORAD_CAT_ID": 64901,
    "ELEMENT_SET_NO": 999,
    "REV_AT_EPOCH": 5251,
    "BSTAR": 0.000064903,
    "MEAN_MOTION_DOT": 0.00001338,
    "MEAN_MOTION_DDOT": 0
   }
  },
  {
   "norad": 36744,
   "name": "COMS 1",
   "intl": "2010-032A",
   "group": "weather",
   "gcat": {
    "class": null,
    "category": null,
    "owner": null,
    "state": null
   },
   "omm": {
    "OBJECT_NAME": "COMS 1",
    "OBJECT_ID": "2010-032A",
    "EPOCH": "2026-07-06T20:36:54.385920",
    "MEAN_MOTION": 0.9916943,
    "ECCENTRICITY": 0.0011518,
    "INCLINATION": 4.8524,
    "RA_OF_ASC_NODE": 75.1214,
    "ARG_OF_PERICENTER": 14.4384,
    "MEAN_ANOMALY": 139.6587,
    "EPHEMERIS_TYPE": 0,
    "CLASSIFICATION_TYPE": "U",
    "NORAD_CAT_ID": 36744,
    "ELEMENT_SET_NO": 999,
    "REV_AT_EPOCH": 5128,
    "BSTAR": 0,
    "MEAN_MOTION_DOT": -0.00000173,
    "MEAN_MOTION_DDOT": 0
   }
  },
  {
   "norad": 31598,
   "name": "COSMO-SKYMED 1",
   "intl": "2007-023A",
   "group": "resource",
   "gcat": {
    "class": "D",
    "category": "IMG-R",
    "owner": "ASI",
    "state": "I"
   },
   "omm": {
    "OBJECT_NAME": "COSMO-SKYMED 1",
    "OBJECT_ID": "2007-023A",
    "EPOCH": "2026-07-06T20:25:55.015680",
    "MEAN_MOTION": 14.97195202,
    "ECCENTRICITY": 0.000102,
    "INCLINATION": 97.885,
    "RA_OF_ASC_NODE": 19.8735,
    "ARG_OF_PERICENTER": 88.5242,
    "MEAN_ANOMALY": 271.6096,
    "EPHEMERIS_TYPE": 0,
    "CLASSIFICATION_TYPE": "U",
    "NORAD_CAT_ID": 31598,
    "ELEMENT_SET_NO": 999,
    "REV_AT_EPOCH": 3273,
    "BSTAR": 0.00016249,
    "MEAN_MOTION_DOT": 0.00001819,
    "MEAN_MOTION_DDOT": 0
   }
  }
 ]
}
